[{"OBJECT_NAME":"OBJECT J","OBJECT_ID":"2023-085J","EPOCH":"2026-03-09T22:47:59.920512","MEAN_MOTION":15.31507187,"ECCENTRICITY":0.00067028,"INCLINATION":97.4828,"RA_OF_ASC_NODE":180.1819,"ARG_OF_PERICENTER":41.7877,"MEAN_ANOMALY":318.3875,"EPHEMERIS_TYPE":0,"CLASSIFICATION_TYPE":"U","NORAD_CAT_ID":57012,"ELEMENT_SET_NO":999,"REV_AT_EPOCH":15156,"BSTAR":0.00064525349,"MEAN_MOTION_DOT":0.00019595,"MEAN_MOTION_DDOT":0},{"OBJECT_NAME":"STARLINK-35912","OBJECT_ID":"2025-283E","EPOCH":"2026-03-09T06:09:28.436832","MEAN_MOTION":15.30191279,"ECCENTRICITY":7.821e-5,"INCLINATION":53.1609,"RA_OF_ASC_NODE":26.4811,"ARG_OF_PERICENTER":92.2957,"MEAN_ANOMALY":267.8133,"EPHEMERIS_TYPE":0,"CLASSIFICATION_TYPE":"U","NORAD_CAT_ID":66882,"ELEMENT_SET_NO":999,"REV_AT_EPOCH":1577,"BSTAR":0.0011334083,"MEAN_MOTION_DOT":0.00033351,"MEAN_MOTION_DDOT":0}]
